OBJECT_NAME,OBJECT_ID,EPOCH,MEAN_MOTION,ECCENTRICITY,INCLINATION,RA_OF_ASC_NODE,ARG_OF_PERICENTER,MEAN_ANOMALY,EPHEMERIS_TYPE,CLASSIFICATION_TYPE,NORAD_CAT_ID,ELEMENT_SET_NO,REV_AT_EPOCH,BSTAR,MEAN_MOTION_DOT,MEAN_MOTION_DDOT
ONEWEB-0087,2020-020AD,2026-07-18T05:40:46.705152,13.11417848,.00016036,87.8903,14.8646,96.8127,263.3184,0,U,45451,999,30665,.7895313E-3,.293E-5,0
ONEWEB-0082,2020-020AE,2026-07-18T11:05:29.565600,13.11419052,.0001359,87.8895,14.8337,91.3226,268.8058,0,U,45452,999,30677,.53975565E-3,.204E-5,0
ONEWEB-0050,2020-020AF,2026-07-18T11:55:26.704704,14.90478006,.0002709,88.9278,228.9572,165.9648,194.1657,0,U,45453,999,34504,.74802963E-4,.751E-5,0
ONEWEB-0034,2020-020AG,2026-07-18T11:59:37.897152,13.11414419,.00018063,87.8893,14.8353,89.3033,270.8302,0,U,45454,999,30669,-.43177583E-3,-.14E-5,0
ONEWEB-0060,2020-020AH,2026-07-18T10:54:42.292224,13.11418901,.00013659,87.8891,14.8401,124.0091,236.1167,0,U,45455,999,30664,-.36836596E-3,-.118E-5,0
ONEWEB-0086,2020-020AJ,2026-07-18T10:23:58.358976,13.11416834,.00019602,87.8894,14.8421,114.5275,245.6057,0,U,45456,999,30670,-.13364721E-2,-.461E-5,0
ONEWEB-0088,2020-020AK,2026-07-18T11:42:18.457632,13.11415903,.00016708,87.8904,14.8063,77.9939,282.1376,0,U,45457,999,30664,.1078428E-2,.395E-5,0
ONEWEB-0102,2020-100A,2026-07-18T09:23:20.341824,13.12443650,.00020758,87.8966,344.4699,103.1256,257.0104,0,U,47258,999,26882,.13005696E-2,.481E-5,0
ONEWEB-0109,2020-100B,2026-07-18T02:16:24.404160,13.12443019,.00020007,87.8976,344.5149,96.6042,263.5314,0,U,47259,999,26861,.12204948E-2,.452E-5,0
ONEWEB-0110,2020-100C,2026-07-18T08:24:47.124288,13.12443511,.00018581,87.8976,344.4481,105.4974,254.6359,0,U,47260,999,26881,-.1089501E-2,-.379E-5,0
ONEWEB-0111,2020-100D,2026-07-18T09:08:42.052992,13.12444054,.0001771,87.8976,344.4609,98.2252,261.9077,0,U,47261,999,26865,.71905225E-3,.271E-5,0
ONEWEB-0114,2020-100E,2026-07-18T15:21:57.213792,13.12441161,.00020743,87.8979,344.4075,96.2372,263.8992,0,U,47262,999,26864,.3246496E-3,.13E-5,0
ONEWEB-0117,2020-100F,2026-07-18T09:40:24.913632,13.12442015,.00018746,87.8975,344.4444,99.0189,261.1152,0,U,47263,999,26862,.86946231E-3,.326E-5,0
ONEWEB-0118,2020-100G,2026-07-18T08:39:25.191072,13.12442831,.00019403,87.8972,344.4558,86.9016,273.2335,0,U,47264,999,26881,-.1048042E-2,-.364E-5,0
ONEWEB-0119,2020-100H,2026-07-18T09:16:01.521408,13.12443294,.00018855,87.8965,344.4645,96.1789,263.9554,0,U,47265,999,26879,.10322303E-2,.384E-5,0
ONEWEB-0120,2020-100J,2026-07-18T08:00:35.409888,13.12440940,.0002022,87.8966,344.4764,95.3178,264.8182,0,U,47266,999,26881,.24742575E-3,.102E-5,0
ONEWEB-0121,2020-100K,2026-07-18T07:43:18.869088,13.12442304,.00016042,87.8976,344.4677,101.8801,258.2508,0,U,47267,999,26872,.11021811E-2,.409E-5,0
ONEWEB-0122,2020-100L,2026-07-18T09:24:33.660864,13.12441978,.0002028,87.8977,344.4584,101.1504,258.9852,0,U,47268,999,26864,.12749263E-2,.471E-5,0
ONEWEB-0123,2020-100M,2026-07-18T09:18:27.461376,13.12443391,.00018792,87.8962,344.4633,93.4268,266.7076,0,U,47269,999,26878,.10879039E-2,.404E-5,0
ONEWEB-0124,2020-100N,2026-07-17T20:15:20.916576,13.12443269,.00017648,87.8962,344.5738,97.4951,262.6378,0,U,47270,999,26859,.53055159E-3,.204E-5,0
ONEWEB-0125,2020-100P,2026-07-17T21:33:24.045408,13.12443609,.00015685,87.8975,344.5501,92.4198,267.7111,0,U,47271,999,26866,-.1174781E-2,-.41E-5,0
ONEWEB-0126,2020-100Q,2026-07-18T09:01:35.578272,13.12443784,.00019904,87.8969,344.4687,94.5333,265.6022,0,U,47272,999,26879,.22460936E-3,.94E-6,0
ONEWEB-0127,2020-100R,2026-07-18T15:31:42.351744,13.12442477,.00020225,87.8963,344.4125,96.0719,264.0641,0,U,47273,999,26885,-.40970139E-3,-.135E-5,0
ONEWEB-0128,2020-100S,2026-07-18T08:44:17.560032,13.12443946,.00018603,87.8964,344.4821,106.6783,253.4550,0,U,47274,999,26883,-.85896756E-3,-.296E-5,0
ONEWEB-0129,2020-100T,2026-07-17T23:06:06.854976,13.12441920,.00029488,87.8974,344.5387,90.3723,269.7743,0,U,47275,999,26871,-.74046307E-3,-.254E-5,0
ONEWEB-0130,2020-100U,2026-07-18T08:54:03.581856,13.12444084,.00019578,87.8978,344.4535,98.6188,261.5162,0,U,47276,999,26873,-.14571699E-3,-.4E-6,0
ONEWEB-0131,2020-100V,2026-07-18T16:08:18.523968,13.12443156,.00018785,87.8964,344.4085,102.3708,257.7631,0,U,47277,999,26881,-.80460568E-3,-.277E-5,0
ONEWEB-0132,2020-100W,2026-07-18T07:40:52.436640,13.12443069,.00018903,87.8969,344.4810,98.0402,262.0941,0,U,47278,999,26866,.11379881E-2,.422E-5,0
ONEWEB-0133,2020-100X,2026-07-17T22:56:08.535840,13.12442718,.00018583,87.8978,344.5328,104.9777,255.1557,0,U,47279,999,26877,-.20158847E-3,-.6E-6,0
ONEWEB-0134,2020-100Y,2026-07-18T03:41:47.762592,13.12443056,.00020825,87.8979,344.4907,102.1168,258.0194,0,U,47280,999,26877,.96745501E-3,.361E-5,0
ONEWEB-0135,2020-100Z,2026-07-17T21:30:57.549024,13.12443455,.00020269,87.8964,344.5608,104.6813,255.4540,0,U,47281,999,26876,-.12029919E-2,-.42E-5,0
ONEWEB-0136,2020-100AA,2026-07-18T08:56:29.634144,13.12444146,.00021467,87.8972,344.4500,102.0419,258.0950,0,U,47282,999,26875,.28450285E-4,.23E-6,0
ONEWEB-0137,2020-100AB,2026-07-17T22:46:35.573376,13.12442209,.00017946,87.8979,344.5454,92.5976,267.5358,0,U,47283,999,26860,.48287962E-3,.186E-5,0
ONEWEB-0138,2020-100AC,2026-07-18T09:13:34.928256,13.12443648,.00020858,87.8975,344.4637,99.3674,260.7691,0,U,47284,999,26874,.9680935E-3,.361E-5,0
ONEWEB-0139,2020-100AD,2026-07-18T08:22:32.774880,13.12442144,.00019286,87.8976,344.4565,97.2312,262.9036,0,U,47285,999,26881,-.90763062E-3,-.314E-5,0
ONEWEB-0140,2020-100AE,2026-07-18T07:16:28.637472,13.12443867,.00017911,87.8976,344.4572,102.0469,258.0861,0,U,47286,999,26877,.68723063E-3,.26E-5,0
ONEWEB-0141,2020-100AF,2026-07-18T08:22:07.660128,13.12443107,.00018273,87.8975,344.4528,87.6037,272.5301,0,U,47287,999,26876,-.91073021E-3,-.315E-5,0
ONEWEB-0142,2020-100AG,2026-07-18T08:05:27.398688,13.12443318,.0002164,87.8968,344.4750,88.2011,271.9365,0,U,47288,999,26875,.10964286E-3,.52E-6,0
ONEWEB-0143,2020-100AH,2026-07-18T08:19:53.562144,13.12442611,.00018409,87.8968,344.4726,95.5074,264.6264,0,U,47289,999,26873,-.81991034E-3,-.282E-5,0
ONEWEB-0144,2020-100AJ,2026-07-18T09:28:13.284480,13.12443135,.00022623,87.8979,344.4391,97.8646,262.2739,0,U,47290,999,26866,.13026029E-2,.481E-5,0
ONEWEB-0145,2020-100AK,2026-07-18T16:05:51.478944,13.12443988,.00019499,87.8969,344.4087,95.9997,264.1354,0,U,47291,999,26889,-.82537691E-3,-.284E-5,0
ONEWEB-0146,2020-100AL,2026-07-18T08:41:51.206208,13.12443822,.00015617,87.8976,344.4639,103.0599,257.0704,0,U,47292,999,26876,-.86549745E-3,-.299E-5,0
ONEWEB-0147,2020-100AM,2026-07-18T02:23:43.400832,13.12442216,.00019229,87.8977,344.4983,101.6378,258.4966,0,U,47293,999,26862,.54562197E-3,.209E-5,0
ONEWEB-0115,2021-025A,2026-07-18T13:27:42.357888,13.13460588,.0001853,87.8985,313.9811,102.8915,257.2422,0,U,48042,999,25771,-.16198935E-3,-.46E-6,0
ONEWEB-0152,2021-025B,2026-07-18T13:47:09.303072,13.13473864,.00018719,87.8990,313.9768,102.6461,257.4877,0,U,48043,999,25767,-.72634839E-3,-.253E-5,0
ONEWEB-0153,2021-025C,2026-07-18T13:15:29.008512,13.13469576,.00019972,87.8980,313.9816,98.4363,261.6993,0,U,48044,999,25766,.44142213E-3,.174E-5,0
ONEWEB-0154,2021-025D,2026-07-18T07:41:31.355520,13.13469623,.00019823,87.8988,314.0273,105.5895,254.5453,0,U,48045,999,25759,.68674695E-3,.264E-5,0
ONEWEB-0116,2021-025E,2026-07-18T06:47:53.252736,13.13470930,.00018472,87.8988,314.0317,102.7817,257.3519,0,U,48046,999,25773,-.36306499E-3,-.12E-5,0
ONEWEB-0150,2021-025F,2026-07-18T13:32:33.023904,13.13469666,.00018851,87.8991,313.9730,95.3236,264.8108,0,U,48047,999,25766,-.13829475E-3,-.38E-6,0
ONEWEB-0107,2021-025G,2026-07-18T08:05:53.501856,13.13472262,.00021197,87.8991,314.0144,97.6967,262.4403,0,U,48048,999,25761,-.36247207E-3,-.12E-5,0
ONEWEB-0101,2021-025H,2026-07-18T14:31:03.080064,13.13471372,.00021103,87.8976,313.9738,101.9898,258.1468,0,U,48049,999,25762,.57280431E-3,.222E-5,0
ONEWEB-0113,2021-025J,2026-07-18T14:51:35.763552,13.13891239,.00018719,87.8984,313.8782,96.1076,264.0267,0,U,48050,999,25773,.76048735E-3,.292E-5,0
ONEWEB-0112,2021-025K,2026-07-18T06:23:30.891264,13.13469891,.00021873,87.8991,314.0268,101.4847,258.6528,0,U,48051,999,25767,-.63109343E-3,-.218E-5,0
ONEWEB-0156,2021-025L,2026-07-18T06:35:40.930656,13.13472506,.00020089,87.8987,314.0349,96.7330,263.4028,0,U,48052,999,25765,-.69232873E-3,-.24E-5,0
ONEWEB-0161,2021-025M,2026-07-18T07:48:49.873536,13.13472218,.00020814,87.8988,314.0256,95.1956,264.9411,0,U,48053,999,25759,.6884676E-3,.264E-5,0
ONEWEB-0158,2021-025N,2026-07-18T06:50:20.322816,13.13472298,.00018763,87.8985,314.0313,108.8374,251.2959,0,U,48054,999,25771,-.24517035E-3,-.77E-6,0
ONEWEB-0157,2021-025P,2026-07-18T07:26:53.349216,13.13471605,.00023116,87.8986,314.0310,95.7231,264.4161,0,U,48055,999,25765,.10589768E-2,.4E-5,0
ONEWEB-0162,2021-025Q,2026-07-18T14:11:21.778656,13.13470600,.00018717,87.8984,313.9754,95.2856,264.8487,0,U,48056,999,25766,-.98854356E-4,-.23E-6,0
ONEWEB-0155,2021-025R,2026-07-18T14:21:16.922592,13.13483752,.00019993,87.8983,313.9707,97.2787,262.8570,0,U,48057,999,25780,.31161016E-2,.1151E-4,0
ONEWEB-0149,2021-025S,2026-07-18T14:53:00.111552,13.13469809,.00018787,87.8988,313.9704,93.3309,266.8035,0,U,48058,999,25761,.97871414E-3,.37E-5,0
ONEWEB-0148,2021-025T,2026-07-18T13:59:21.737472,13.13469714,.00018673,87.8980,313.9828,82.4866,277.6475,0,U,48059,999,25773,-.62579569E-3,-.216E-5,0
ONEWEB-0160,2021-025U,2026-07-18T14:23:44.134368,13.13470787,.00015158,87.8978,313.9755,119.5339,240.5942,0,U,48060,999,25768,.32169972E-3,.13E-5,0
ONEWEB-0163,2021-025V,2026-07-18T06:43:01.060032,13.13469935,.00022206,87.8985,314.0361,96.9355,263.2027,0,U,48061,999,25776,-.47929516E-3,-.162E-5,0
ONEWEB-0159,2021-025W,2026-07-18T06:30:49.518144,13.13469959,.00021972,87.8987,314.0316,98.0755,262.0624,0,U,48062,999,25768,-.74154568E-3,-.258E-5,0
ONEWEB-0164,2021-025X,2026-07-18T06:04:00.762240,13.13469544,.00019076,87.8992,314.0414,100.8995,259.2349,0,U,48063,999,25766,-.52996938E-4,-.7E-7,0
